{"type": "FeatureCollection", "features": [{"type": "Feature", "properties": {"norad_id": 50032, "name": "COSMOS 1408 DEB", "group": "cosmos-1408-debris", "lat": 12.797107205103865, "lon": 66.40020916721588, "alt_km": 438.69161715782775, "timestamp": "2025-12-06T16:45:42.992426+00:00", "meta": {"OBJECT_NAME": "COSMOS 1408 DEB", "OBJECT_ID": "1982-092RU", "EPOCH": "2025-12-06T05:49:46.068384", "MEAN_MOTION": 15.45595735, "ECCENTRICITY": 0.00147662, "INCLINATION": 82.5649, "RA_OF_ASC_NODE": 65.1671, "ARG_OF_PERICENTER": 233.9389, "MEAN_ANOMALY": 126.0493, "EPHEMERIS_TYPE": 0, "CLASSIFICATION_TYPE": "U", "NORAD_CAT_ID": 50032, "ELEMENT_SET_NO": 999, "REV_AT_EPOCH": 22503, "BSTAR": 0.00018639408, "MEAN_MOTION_DOT": 9.041e-05, "MEAN_MOTION_DDOT": 0}, "tle": {"line1": "1 50032U 82092RU  25340.24289431  .00009041  00000+0  18639-3 0  9991", "line2": "2 50032  82.5649  65.1671 0014766 233.9389 126.0493 15.45595735225039"}}, "geometry": {"type": "Point", "coordinates": [66.40020916721588, 12.797107205103865]}}, {"type": "Feature", "properties": {"norad_id": 50058, "name": "COSMOS 1408 DEB", "group": "cosmos-1408-debris", "lat": -0.1593884257980516, "lon": -104.31727864111883, "alt_km": 374.98730287620765, "timestamp": "2025-12-06T16:45:42.992447+00:00", "meta": {"OBJECT_NAME": "COSMOS 1408 DEB", "OBJECT_ID": "1982-092SW", "EPOCH": "2025-12-06T03:42:28.069056", "MEAN_MOTION": 15.63525436, "ECCENTRICITY": 0.00162546, "INCLINATION": 82.6137, "RA_OF_ASC_NODE": 76.2308, "ARG_OF_PERICENTER": 122.1588, "MEAN_ANOMALY": 238.125, "EPHEMERIS_TYPE": 0, "CLASSIFICATION_TYPE": "U", "NORAD_CAT_ID": 50058, "ELEMENT_SET_NO": 999, "REV_AT_EPOCH": 22701, "BSTAR": 0.00049335108, "MEAN_MOTION_DOT": 0.00046144, "MEAN_MOTION_DDOT": 0}, "tle": {"line1": "1 50058U 82092SW  25340.15449154  .00046144  00000+0  49335-3 0  9991", "line2": "2 50058  82.6137  76.2308 0016254 122.1588 238.1250 15.63525436227011"}}, "geometry": {"type": "Point", "coordinates": [-104.31727864111883, -0.1593884257980516]}}, {"type": "Feature", "properties": {"norad_id": 50404, "name": "COSMOS 1408 DEB", "group": "cosmos-1408-debris", "lat": -47.052768936951594, "lon": -147.25098852232733, "alt_km": 538.790337974956, "timestamp": "2025-12-06T16:45:42.992461+00:00", "meta": {"OBJECT_NAME": "COSMOS 1408 DEB", "OBJECT_ID": "1982-092ADS", "EPOCH": "2025-12-06T02:41:05.955072", "MEAN_MOTION": 15.12434812, "ECCENTRICITY": 0.01747261, "INCLINATION": 82.2047, "RA_OF_ASC_NODE": 221.8118, "ARG_OF_PERICENTER": 221.7921, "MEAN_ANOMALY": 136.9859, "EPHEMERIS_TYPE": 0, "CLASSIFICATION_TYPE": "U", "NORAD_CAT_ID": 50404, "ELEMENT_SET_NO": 999, "REV_AT_EPOCH": 21093, "BSTAR": 0.0038004271, "MEAN_MOTION_DOT": 0.00097112, "MEAN_MOTION_DDOT": 0}, "tle": {"line1": "1 50404U 82092ADS 25340.11187448  .00097112  00000+0  38004-2 0  9998", "line2": "2 50404  82.2047 221.8118 0174726 221.7921 136.9859 15.12434812210939"}}, "geometry": {"type": "Point", "coordinates": [-147.25098852232733, -47.052768936951594]}}, {"type": "Feature", "properties": {"norad_id": 50621, "name": "COSMOS 1408 DEB", "group": "cosmos-1408-debris", "lat": -3.088203154353695, "lon": 80.06527957662074, "alt_km": 421.6840383636436, "timestamp": "2025-12-06T16:45:42.992473+00:00", "meta": {"OBJECT_NAME": "COSMOS 1408 DEB", "OBJECT_ID": "1982-092ALR", "EPOCH": "2025-12-06T05:58:21.140256", "MEAN_MOTION": 15.56160395, "ECCENTRICITY": 0.00287722, "INCLINATION": 82.5723, "RA_OF_ASC_NODE": 80.9361, "ARG_OF_PERICENTER": 176.4358, "MEAN_ANOMALY": 183.7108, "EPHEMERIS_TYPE": 0, "CLASSIFICATION_TYPE": "U", "NORAD_CAT_ID": 50621, "ELEMENT_SET_NO": 999, "REV_AT_EPOCH": 22149, "BSTAR": 0.00059401028, "MEAN_MOTION_DOT": 0.00042512, "MEAN_MOTION_DDOT": 0}, "tle": {"line1": "1 50621U 82092ALR 25340.24885579  .00042512  00000+0  59401-3 0  9992", "line2": "2 50621  82.5723  80.9361 0028772 176.4358 183.7108 15.56160395221497"}}, "geometry": {"type": "Point", "coordinates": [80.06527957662074, -3.088203154353695]}}]}